1 44933U 20001V   23283.45216273  .00041854  00000-0  28072-2 0  9997
2 44933  53.0559 342.6499 0001569  69.9274 290.1884 15.06464198208317
1 44933U 20001V   23283.45216273  .00041854  00000-0  28072-2 0  9997
2 44933  53.0559 342.6499 0001569  69.9274 290.1884 15.06464198208317
1 44933U 20001V   23284.11563809  .00018099  00000-0  12305-2 0  9998
2 44933  53.0558 339.6714 0002023  64.2651 295.8547 15.06409177208410
1 44933U 20001V   23284.44737789  .00028331  00000-0  19145-2 0  9993
2 44933  53.0558 338.1825 0001507  97.6017 262.5143 15.06375446208468
1 44933U 20001V   23284.58007424  .00035726  00000-0  24063-2 0  9995
2 44933  53.0557 337.5869 0001551  95.5937 264.5229 15.06382471208480
1 44933U 20001V   23285.44257345  .00029586  00000-0  19947-2 0  9992
2 44933  53.0551 333.7150 0001526  91.4846 268.6318 15.06439457208617
1 44933U 20001V   23285.84064865  .00018244  00000-0  12393-2 0  9996
2 44933  53.0551 331.9267 0001157  62.5415 297.5692 15.06435677208679
1 44933U 20001V   23285.84064865  .00018244  00000-0  12393-2 0  9996
2 44933  53.0551 331.9267 0001157  62.5415 297.5692 15.06435677208679
1 44933U 20001V   23286.43778578  .00026429  00000-0  17875-2 0  9999
2 44933  53.0545 329.2473 0001622  72.8893 287.2274 15.06379934208767
1 44933U 20001V   23286.43778578  .00026429  00000-0  17875-2 0  9999
2 44933  53.0545 329.2473 0001622  72.8893 287.2274 15.06379934208767
1 44933U 20001V   23287.10125099  .00040005  00000-0  26870-2 0  9999
2 44933  53.0538 326.2687 0001730  75.2278 284.8903 15.06432517208867
1 44933U 20001V   23287.43297661  .00032974  00000-0  22193-2 0  9990
2 44933  53.0538 324.7794 0001775  74.2620 285.8565 15.06448548208910
1 44933U 20001V   23287.83105940  .00000448  00000-0  48981-4 0  9998
2 44933  53.0532 322.9949 0002130  67.9371 292.1844 15.06413745208972
1 44933U 20001V   23287.83105940  .00000448  00000-0  48981-4 0  9998
2 44933  53.0532 322.9949 0002130  67.9371 292.1844 15.06413745208972
1 44933U 20001V   23288.09645009 -.00013724  00000-0 -90482-3 0  9997
2 44933  53.0536 321.8010 0001523  88.2594 271.8569 15.06374657209013
1 44933U 20001V   23288.36184693  .00014978  00000-0  10232-2 0  9998
2 44933  53.0537 320.6094 0001491  86.9409 273.1750 15.06365619209056
1 44933U 20001V   23288.82628441  .00026109  00000-0  17660-2 0  9994
2 44933  53.0538 318.5246 0001561  88.8928 271.2239 15.06382515209120
1 44933U 20001V   23288.82628441  .00026109  00000-0  17660-2 0  9994
2 44933  53.0538 318.5246 0001561  88.8928 271.2239 15.06382515209120
1 44933U 20001V   23289.35705893  .00027659  00000-0  18679-2 0  9992
2 44933  53.0542 316.1419 0001596  87.8096 272.3076 15.06411483209201
1 44933U 20001V   23290.08687554  .00012986  00000-0  88896-3 0  9993
2 44933  53.0541 312.8651 0001576  90.3913 269.7257 15.06405064209317
1 44933U 20001V   23290.35226197  .00006081  00000-0  42674-3 0  9998
2 44933  53.0539 311.6725 0001575  93.1214 266.9955 15.06403380209354
1 44933U 20001V   23291.08206680  .00014674  00000-0  10012-2 0  9991
2 44933  53.0545 308.3930 0001614  89.5723 270.5450 15.06428740209460
1 44933U 20001V   23291.21475699  .00014766  00000-0  10072-2 0  9992
2 44933  53.0546 307.7994 0001645  94.1475 265.9702 15.06433415209489
1 44933U 20001V   23292.20995391 -.00001255  00000-0 -65358-4 0  9998
2 44933  53.0545 303.3324 0001957  81.1082 279.0129 15.06403445209639
1 44933U 20001V   23292.40899893  .00024242  00000-0  16410-2 0  9992
2 44933  53.0550 302.4401 0001944  77.9935 282.1272 15.06394319209663
1 44933U 20001V   23292.74073088  .00028693  00000-0  19366-2 0  9996
2 44933  53.0545 300.9504 0001802  85.4904 274.6290 15.06413848209718
1 44933U 20001V   23292.74073088  .00028693  00000-0  19366-2 0  9996
2 44933  53.0545 300.9504 0001802  85.4904 274.6290 15.06413848209718
1 44933U 20001V   23293.40418424  .00022190  00000-0  15021-2 0  9997
2 44933  53.0547 297.9727 0001855  86.0166 274.1035 15.06444223209811
1 44933U 20001V   23293.40418424  .00022190  00000-0  15021-2 0  9997
2 44933  53.0547 297.9727 0001855  86.0166 274.1035 15.06444223209811
1 44933U 20001V   23294.00131551  .00011937  00000-0  81908-3 0  9992
2 44933  53.0545 295.2916 0001456  93.7241 266.3914 15.06391505209909
1 44933U 20001V   23294.26670846  .00022828  00000-0  15471-2 0  9997
2 44933  53.0545 294.0999 0001154  87.3972 272.7149 15.06383984209949
1 44933U 20001V   23294.26670846  .00022828  00000-0  15471-2 0  9997
2 44933  53.0545 294.0999 0001154  87.3972 272.7149 15.06383984209949
1 44933U 20001V   23294.73114223  .00013561  00000-0  92788-3 0  9992
2 44933  53.0540 292.0172 0001171  84.5354 275.5769 15.06385465210012
1 44933U 20001V   23294.73114223  .00013561  00000-0  92788-3 0  9992
2 44933  53.0540 292.0172 0001171  84.5354 275.5769 15.06385465210012
1 44933U 20001V   23295.26191503  .00016364  00000-0  11147-2 0  9990
2 44933  53.0543 289.6325 0001327  95.6877 264.4263 15.06407592210093
1 44933U 20001V   23295.26191503  .00016364  00000-0  11147-2 0  9990
2 44933  53.0543 289.6325 0001327  95.6877 264.4263 15.06407592210093
1 44933U 20001V   23296.19078194  .00016242  00000-0  11070-2 0  9993
2 44933  53.0538 285.4630 0001400 106.9687 253.1455 15.06391233210235
1 44933U 20001V   23296.25712986  .00014307  00000-0  97778-3 0  9994
2 44933  53.0545 285.1656 0001451 105.4728 254.6422 15.06386083210242
1 44933U 20001V   23297.18598859  .00013498  00000-0  92315-3 0  9990
2 44933  53.0545 280.9945 0001481  82.8371 277.2787 15.06405749210382
1 44933U 20001V   23297.25233480  .00016239  00000-0  11062-2 0  9999
2 44933  53.0545 280.6976 0001487  79.1194 280.9962 15.06411365210399
1 44933U 20001V   23298.38023694  .00009377  00000-0  64752-3 0  9998
2 44933  53.0545 275.6358 0001622  88.8443 271.2732 15.06402101210567
1 44933U 20001V   23298.38023694  .00009377  00000-0  64752-3 0  9998
2 44933  53.0545 275.6358 0001622  88.8443 271.2732 15.06402101210567
1 44933U 20001V   23299.30908003  .00018905  00000-0  12834-2 0  9997
2 44933  53.0539 271.4652 0001603  90.0476 270.0697 15.06435593210705
1 44933U 20001V   23299.30908003  .00018905  00000-0  12834-2 0  9997
2 44933  53.0539 271.4652 0001603  90.0476 270.0697 15.06435593210705
1 44933U 20001V   23299.90620069  .00008275  00000-0  57340-3 0  9997
2 44933  53.0534 268.7834 0002448  81.4539 278.6727 15.06423741210792
1 44933U 20001V   23300.17158763  .00009417  00000-0  65000-3 0  9997
2 44933  53.0529 267.5919 0001415  91.2775 268.8376 15.06413959210837
1 44933U 20001V   23300.30428329  .00032841  00000-0  22128-2 0  9990
2 44933  53.0532 266.9967 0001365  86.6499 273.4646 15.06409471210850
1 44933U 20001V   23300.63601358  .00027422  00000-0  18515-2 0  9995
2 44933  53.0532 265.5068 0001400  89.4483 270.6666 15.06423568210901
1 44933U 20001V   23301.16677626  .00020405  00000-0  13832-2 0  9996
2 44933  53.0537 263.1243 0001466  88.7401 271.3756 15.06441941210980
1 44933U 20001V   23301.63120151  .00018196  00000-0  12364-2 0  9997
2 44933  53.0545 261.0380 0001782  94.1573 265.9620 15.06427959211051
1 44933U 20001V   23301.63120151  .00018196  00000-0  12364-2 0  9997
2 44933  53.0545 261.0380 0001782  94.1573 265.9620 15.06427959211051
1 44933U 20001V   23302.16198151  .00023450  00000-0  15884-2 0  9990
2 44933  53.0547 258.6567 0001448 103.7649 256.3502 15.06389648211136
1 44933U 20001V   23302.29467648  .00021269  00000-0  14428-2 0  9993
2 44933  53.0559 258.0604 0001593 103.7724 256.3443 15.06391706211154
1 44933U 20001V   23303.15717849  .00020348  00000-0  13800-2 0  9990
2 44933  53.0552 254.1883 0001558 106.3270 253.7890 15.06426228211288
1 44933U 20001V   23303.88700130 -.00004302  00000-0 -27015-3 0  9993
2 44933  53.0548 250.9130 0001751  89.5834 270.5356 15.06387281211396
1 44933U 20001V   23303.88700130 -.00004302  00000-0 -27015-3 0  9993
2 44933  53.0548 250.9130 0001751  89.5834 270.5356 15.06387281211396
1 44933U 20001V   23304.55048136  .00012229  00000-0  83879-3 0  9994
2 44933  53.0544 247.9346 0001481  94.5339 265.5819 15.06383753211492
1 44933U 20001V   23304.88221682  .00020664  00000-0  14021-2 0  9993
2 44933  53.0545 246.4447 0001356  85.9219 274.1925 15.06399502211540
1 44933U 20001V   23305.14760015  .00026870  00000-0  18149-2 0  9991
2 44933  53.0540 245.2542 0001404  91.8872 268.2278 15.06421005211586
1 44933U 20001V   23305.54568486  .00015771  00000-0  10750-2 0  9991
2 44933  53.0548 243.4670 0001967  73.8137 286.3069 15.06409658211640
1 44933U 20001V   23305.54568486  .00015771  00000-0  10750-2 0  9991
2 44933  53.0548 243.4670 0001967  73.8137 286.3069 15.06409658211640
1 44933U 20001V   23306.14281703  .00024759  00000-0  16761-2 0  9996
2 44933  53.0541 240.7877 0001337  78.7962 281.3177 15.06380292211730
1 44933U 20001V   23306.54089947  .00031267  00000-0  21085-2 0  9993
2 44933  53.0536 239.0006 0001258  80.8595 279.2536 15.06403477211799
1 44933U 20001V   23307.20435850  .00026339  00000-0  17788-2 0  9994
2 44933  53.0542 236.0226 0001313  81.9744 278.1394 15.06435960211890
1 44933U 20001V   23307.53609464  .00014739  00000-0  10058-2 0  9998
2 44933  53.0548 234.5319 0001485  92.5168 267.5991 15.06417452211947
1 44933U 20001V   23307.53609464  .00014739  00000-0  10058-2 0  9998
2 44933  53.0548 234.5319 0001485  92.5168 267.5991 15.06417452211947
1 44933U 20001V   23308.06687411  .00021199  00000-0  14379-2 0  9993
2 44933  53.0543 232.1505 0001273  95.2268 264.8866 15.06396239212029
1 44933U 20001V   23308.19956800  .00026000  00000-0  17580-2 0  9991
2 44933  53.0539 231.5549 0001279  94.0583 266.0552 15.06398822212046
1 44933U 20001V   23308.92937369  .00030085  00000-0  20279-2 0  9998
2 44933  53.0545 228.2775 0001334 102.1611 257.9527 15.06438441212157
1 44933U 20001V   23309.06206369  .00029728  00000-0  20038-2 0  9998
2 44933  53.0540 227.6828 0001270  96.8717 263.2417 15.06445124212175
1 44933U 20001V   23309.06206369  .00029728  00000-0  20038-2 0  9998
2 44933  53.0540 227.6828 0001270  96.8717 263.2417 15.06445124212175
